ISS (ZARYA)             
1 25544U 98067A   26117.36127981  .00010360  00000+0  19594-3 0  9994
2 25544  51.6320 191.6695 0007016 356.2195   3.8740 15.48988133563872
POISK                   
1 36086U 09060A   26117.36127981  .00010360  00000+0  19594-3 0  9992
2 36086  51.6320 191.6695 0007016 356.2195   3.8740 15.48988133563886
CSS (TIANHE)            
1 48274U 21035A   26117.43989941  .00031042  00000+0  33362-3 0  9999
2 48274  41.4668 271.0052 0006807 283.1008  76.9072 15.63054799285236
ISS (NAUKA)             
1 49044U 21066A   26117.36127981  .00010360  00000+0  19594-3 0  9990
2 49044  51.6320 191.6695 0007016 356.2195   3.8740 15.48988133563929
FREGAT DEB              
1 49271U 11037PF  26115.48463640  .00007383  00000+0  11304-1 0  9995
2 49271  51.6455 160.2244 0940570 166.6488 196.1217 12.41059581218503
CSS (WENTIAN)           
1 53239U 22085A   26117.31211214  .00028957  00000+0  31168-3 0  9993
2 53239  41.4669 271.7854 0006817 282.3380  77.6697 15.63043450283136
CSS (MENGTIAN)          
1 54216U 22143A   26117.43989941  .00031042  00000+0  33362-3 0  9993
2 54216  41.4668 271.0052 0006807 283.1008  76.9072 15.63054799285341
TIANZHOU-9              
1 64786U 25149A   26117.43989941  .00031042  00000+0  33362-3 0  9995
2 64786  41.4668 271.0052 0006807 283.1008  76.9072 15.63054799285355
HRC MONOBLOCK CAMERA    
1 66052U 98067XR  26117.42457546  .00055847  00000+0  50429-3 0  9994
2 66052  51.6267 178.5750 0004960 342.0567  18.0253 15.67558926 30025
HTV-X1                  
1 66174U 25241A   26112.99220554  .00004413  00000+0  14900-3 0  9994
2 66174  51.6353 219.4042 0007821 344.1053  15.9682 15.32728944 27734
SZ-21 MODULE            
1 66515U 25246C   26116.70347336  .00045980  00000+0  33789-3 0  9999
2 66515  41.4732 266.9520 0003939 331.6776  28.3852 15.72262877 25623
SHENZHOU-22             
1 66645U 25272A   26117.43989941  .00031042  00000+0  33362-3 0  9998
2 66645  41.4668 271.0052 0006807 283.1008  76.9072 15.63054799285362
SOYUZ-MS 28             
1 66664U 25275A   26117.36127981  .00010360  00000+0  19594-3 0  9993
2 66664  51.6320 191.6695 0007016 356.2195   3.8740 15.48988133564163
DUPLEX                  
1 66906U 98067XS  26117.46866909  .00032437  00000+0  40953-3 0  9994
2 66906  51.6283 184.8854 0005007 349.3142  10.7743 15.59247579 22730
ISS OBJECT XT           
1 66907U 98067XT  26117.40381910  .00676031  20650-3  15674-2 0  9995
2 66907  51.6165 173.0692 0012067   5.9933 354.1217 15.96414246 22882
ISS OBJECT XU           
1 66908U 98067XU  26117.39132069  .00720029  23777-3  15908-2 0  9993
2 66908  51.6159 172.9790 0011852   5.6117 354.5022 15.97293893 22887
