[{"OBJECT_NAME":"ISS (ZARYA)","OBJECT_ID":"1998-067A","EPOCH":"2026-04-27T08:40:14.575584","MEAN_MOTION":15.48988133,"ECCENTRICITY":0.0007016,"INCLINATION":51.632,"RA_OF_ASC_NODE":191.6695,"ARG_OF_PERICENTER":356.2195,"MEAN_ANOMALY":3.874,"EPHEMERIS_TYPE":0,"CLASSIFICATION_TYPE":"U","NORAD_CAT_ID":25544,"ELEMENT_SET_NO":999,"REV_AT_EPOCH":56387,"BSTAR":0.00019594,"MEAN_MOTION_DOT":0.0001036,"MEAN_MOTION_DDOT":0},{"OBJECT_NAME":"POISK","OBJECT_ID":"2009-060A","EPOCH":"2026-04-27T08:40:14.575584","MEAN_MOTION":15.48988133,"ECCENTRICITY":0.0007016,"INCLINATION":51.632,"RA_OF_ASC_NODE":191.6695,"ARG_OF_PERICENTER":356.2195,"MEAN_ANOMALY":3.874,"EPHEMERIS_TYPE":0,"CLASSIFICATION_TYPE":"U","NORAD_CAT_ID":36086,"ELEMENT_SET_NO":999,"REV_AT_EPOCH":56388,"BSTAR":0.00019594,"MEAN_MOTION_DOT":0.0001036,"MEAN_MOTION_DDOT":0},{"OBJECT_NAME":"CSS (TIANHE)","OBJECT_ID":"2021-035A","EPOCH":"2026-04-27T10:33:27.309024","MEAN_MOTION":15.63054799,"ECCENTRICITY":0.0006807,"INCLINATION":41.4668,"RA_OF_ASC_NODE":271.0052,"ARG_OF_PERICENTER":283.1008,"MEAN_ANOMALY":76.9072,"EPHEMERIS_TYPE":0,"CLASSIFICATION_TYPE":"U","NORAD_CAT_ID":48274,"ELEMENT_SET_NO":999,"REV_AT_EPOCH":28523,"BSTAR":0.00033362,"MEAN_MOTION_DOT":0.00031042,"MEAN_MOTION_DDOT":0},{"OBJECT_NAME":"ISS (NAUKA)","OBJECT_ID":"2021-066A","EPOCH":"2026-04-27T08:40:14.575584","MEAN_MOTION":15.48988133,"ECCENTRICITY":0.0007016,"INCLINATION":51.632,"RA_OF_ASC_NODE":191.6695,"ARG_OF_PERICENTER":356.2195,"MEAN_ANOMALY":3.874,"EPHEMERIS_TYPE":0,"CLASSIFICATION_TYPE":"U","NORAD_CAT_ID":49044,"ELEMENT_SET_NO":999,"REV_AT_EPOCH":56392,"BSTAR":0.00019594,"MEAN_MOTION_DOT":0.0001036,"MEAN_MOTION_DDOT":0},{"OBJECT_NAME":"FREGAT DEB","OBJECT_ID":"2011-037PF","EPOCH":"2026-04-25T11:37:52.584960","MEAN_MOTION":12.41059581,"ECCENTRICITY":0.09405705,"INCLINATION":51.6455,"RA_OF_ASC_NODE":160.2244,"ARG_OF_PERICENTER":166.6488,"MEAN_ANOMALY":196.1217,"EPHEMERIS_TYPE":0,"CLASSIFICATION_TYPE":"U","NORAD_CAT_ID":49271,"ELEMENT_SET_NO":999,"REV_AT_EPOCH":21850,"BSTAR":0.01130357,"MEAN_MOTION_DOT":7.383e-5,"MEAN_MOTION_DDOT":0},{"OBJECT_NAME":"CSS (WENTIAN)","OBJECT_ID":"2022-085A","EPOCH":"2026-04-27T07:29:26.488896","MEAN_MOTION":15.6304345,"ECCENTRICITY":0.00068174,"INCLINATION":41.4669,"RA_OF_ASC_NODE":271.7854,"ARG_OF_PERICENTER":282.338,"MEAN_ANOMALY":77.6697,"EPHEMERIS_TYPE":0,"CLASSIFICATION_TYPE":"U","NORAD_CAT_ID":53239,"ELEMENT_SET_NO":999,"REV_AT_EPOCH":28313,"BSTAR":0.00031168042,"MEAN_MOTION_DOT":0.00028957,"MEAN_MOTION_DDOT":0},{"OBJECT_NAME":"CSS (MENGTIAN)","OBJECT_ID":"2022-143A","EPOCH":"2026-04-27T10:33:27.309024","MEAN_MOTION":15.63054799,"ECCENTRICITY":0.0006807,"INCLINATION":41.4668,"RA_OF_ASC_NODE":271.0052,"ARG_OF_PERICENTER":283.1008,"MEAN_ANOMALY":76.9072,"EPHEMERIS_TYPE":0,"CLASSIFICATION_TYPE":"U","NORAD_CAT_ID":54216,"ELEMENT_SET_NO":999,"REV_AT_EPOCH":28534,"BSTAR":0.00033362,"MEAN_MOTION_DOT":0.00031042,"MEAN_MOTION_DDOT":0},{"OBJECT_NAME":"TIANZHOU-9","OBJECT_ID":"2025-149A","EPOCH":"2026-04-27T10:33:27.309024","MEAN_MOTION":15.63054799,"ECCENTRICITY":0.0006807,"INCLINATION":41.4668,"RA_OF_ASC_NODE":271.0052,"ARG_OF_PERICENTER":283.1008,"MEAN_ANOMALY":76.9072,"EPHEMERIS_TYPE":0,"CLASSIFICATION_TYPE":"U","NORAD_CAT_ID":64786,"ELEMENT_SET_NO":999,"REV_AT_EPOCH":28535,"BSTAR":0.00033362,"MEAN_MOTION_DOT":0.00031042,"MEAN_MOTION_DDOT":0},{"OBJECT_NAME":"HRC MONOBLOCK CAMERA","OBJECT_ID":"1998-067XR","EPOCH":"2026-04-27T10:11:23.319744","MEAN_MOTION":15.67558926,"ECCENTRICITY":0.000496,"INCLINATION":51.6267,"RA_OF_ASC_NODE":178.575,"ARG_OF_PERICENTER":342.0567,"MEAN_ANOMALY":18.0253,"EPHEMERIS_TYPE":0,"CLASSIFICATION_TYPE":"U","NORAD_CAT_ID":66052,"ELEMENT_SET_NO":999,"REV_AT_EPOCH":3002,"BSTAR":0.00050429,"MEAN_MOTION_DOT":0.00055847,"MEAN_MOTION_DDOT":0},{"OBJECT_NAME":"HTV-X1","OBJECT_ID":"2025-241A","EPOCH":"2026-04-22T23:48:46.558656","MEAN_MOTION":15.32728944,"ECCENTRICITY":0.00078219,"INCLINATION":51.6353,"RA_OF_ASC_NODE":219.4042,"ARG_OF_PERICENTER":344.1053,"MEAN_ANOMALY":15.9682,"EPHEMERIS_TYPE":0,"CLASSIFICATION_TYPE":"U","NORAD_CAT_ID":66174,"ELEMENT_SET_NO":999,"REV_AT_EPOCH":2773,"BSTAR":0.00014900059,"MEAN_MOTION_DOT":4.413e-5,"MEAN_MOTION_DDOT":0},{"OBJECT_NAME":"SZ-21 MODULE","OBJECT_ID":"2025-246C","EPOCH":"2026-04-26T16:53:00.098304","MEAN_MOTION":15.72262877,"ECCENTRICITY":0.00039399,"INCLINATION":41.4732,"RA_OF_ASC_NODE":266.952,"ARG_OF_PERICENTER":331.6776,"MEAN_ANOMALY":28.3852,"EPHEMERIS_TYPE":0,"CLASSIFICATION_TYPE":"U","NORAD_CAT_ID":66515,"ELEMENT_SET_NO":999,"REV_AT_EPOCH":2562,"BSTAR":0.0003378853,"MEAN_MOTION_DOT":0.0004598,"MEAN_MOTION_DDOT":0},{"OBJECT_NAME":"SHENZHOU-22","OBJECT_ID":"2025-272A","EPOCH":"2026-04-27T10:33:27.309024","MEAN_MOTION":15.63054799,"ECCENTRICITY":0.0006807,"INCLINATION":41.4668,"RA_OF_ASC_NODE":271.0052,"ARG_OF_PERICENTER":283.1008,"MEAN_ANOMALY":76.9072,"EPHEMERIS_TYPE":0,"CLASSIFICATION_TYPE":"U","NORAD_CAT_ID":66645,"ELEMENT_SET_NO":999,"REV_AT_EPOCH":28536,"BSTAR":0.00033362,"MEAN_MOTION_DOT":0.00031042,"MEAN_MOTION_DDOT":0},{"OBJECT_NAME":"SOYUZ-MS 28","OBJECT_ID":"2025-275A","EPOCH":"2026-04-27T08:40:14.575584","MEAN_MOTION":15.48988133,"ECCENTRICITY":0.0007016,"INCLINATION":51.632,"RA_OF_ASC_NODE":191.6695,"ARG_OF_PERICENTER":356.2195,"MEAN_ANOMALY":3.874,"EPHEMERIS_TYPE":0,"CLASSIFICATION_TYPE":"U","NORAD_CAT_ID":66664,"ELEMENT_SET_NO":999,"REV_AT_EPOCH":56416,"BSTAR":0.00019594,"MEAN_MOTION_DOT":0.0001036,"MEAN_MOTION_DDOT":0},{"OBJECT_NAME":"DUPLEX","OBJECT_ID":"1998-067XS","EPOCH":"2026-04-27T11:14:53.009376","MEAN_MOTION":15.59247579,"ECCENTRICITY":0.0005007,"INCLINATION":51.6283,"RA_OF_ASC_NODE":184.8854,"ARG_OF_PERICENTER":349.3142,"MEAN_ANOMALY":10.7743,"EPHEMERIS_TYPE":0,"CLASSIFICATION_TYPE":"U","NORAD_CAT_ID":66906,"ELEMENT_SET_NO":999,"REV_AT_EPOCH":2273,"BSTAR":0.00040953,"MEAN_MOTION_DOT":0.00032437,"MEAN_MOTION_DDOT":0},{"OBJECT_NAME":"ISS OBJECT XT","OBJECT_ID":"1998-067XT","EPOCH":"2026-04-27T09:41:29.970240","MEAN_MOTION":15.96414246,"ECCENTRICITY":0.0012067,"INCLINATION":51.6165,"RA_OF_ASC_NODE":173.0692,"ARG_OF_PERICENTER":5.9933,"MEAN_ANOMALY":354.1217,"EPHEMERIS_TYPE":0,"CLASSIFICATION_TYPE":"U","NORAD_CAT_ID":66907,"ELEMENT_SET_NO":999,"REV_AT_EPOCH":2288,"BSTAR":0.0015674,"MEAN_MOTION_DOT":0.00676031,"MEAN_MOTION_DDOT":0.0002065},{"OBJECT_NAME":"ISS OBJECT XU","OBJECT_ID":"1998-067XU","EPOCH":"2026-04-27T09:23:30.107616","MEAN_MOTION":15.97293893,"ECCENTRICITY":0.0011852,"INCLINATION":51.6159,"RA_OF_ASC_NODE":172.979,"ARG_OF_PERICENTER":5.6117,"MEAN_ANOMALY":354.5022,"EPHEMERIS_TYPE":0,"CLASSIFICATION_TYPE":"U","NORAD_CAT_ID":66908,"ELEMENT_SET_NO":999,"REV_AT_EPOCH":2288,"BSTAR":0.0015908,"MEAN_MOTION_DOT":0.00720029,"MEAN_MOTION_DDOT":0.00023777}]
